[{"OBJECT_NAME":"ONEWEB-0170","OBJECT_ID":"2021-025AB","EPOCH":"2025-09-08T01:42:54.011808","MEAN_MOTION":13.13470043,"ECCENTRICITY":0.00013938,"INCLINATION":87.9029,"RA_OF_ASC_NODE":16.2662,"ARG_OF_PERICENTER":86.2475,"MEAN_ANOMALY":273.8813,"EPHEMERIS_TYPE":0,"CLASSIFICATION_TYPE":"U","NORAD_CAT_ID":48067,"ELEMENT_SET_NO":999,"REV_AT_EPOCH":21651,"BSTAR":-0.00074713804,"MEAN_MOTION_DOT":-2.6e-6,"MEAN_MOTION_DDOT":0},{"OBJECT_NAME":"ONEWEB-0168","OBJECT_ID":"2021-025AC","EPOCH":"2025-09-08T06:50:02.847552","MEAN_MOTION":13.13469832,"ECCENTRICITY":0.00017389,"INCLINATION":87.9029,"RA_OF_ASC_NODE":16.2055,"ARG_OF_PERICENTER":104.2112,"MEAN_ANOMALY":255.921,"EPHEMERIS_TYPE":0,"CLASSIFICATION_TYPE":"U","NORAD_CAT_ID":48068,"ELEMENT_SET_NO":999,"REV_AT_EPOCH":21655,"BSTAR":-9.4469088e-5,"MEAN_MOTION_DOT":-2.2e-7,"MEAN_MOTION_DDOT":0},{"OBJECT_NAME":"ONEWEB-0173","OBJECT_ID":"2021-025AD","EPOCH":"2025-09-08T06:37:51.922560","MEAN_MOTION":13.13470168,"ECCENTRICITY":0.00015894,"INCLINATION":87.9028,"RA_OF_ASC_NODE":16.215,"ARG_OF_PERICENTER":113.3897,"MEAN_ANOMALY":246.7399,"EPHEMERIS_TYPE":0,"CLASSIFICATION_TYPE":"U","NORAD_CAT_ID":48069,"ELEMENT_SET_NO":999,"REV_AT_EPOCH":21679,"BSTAR":0.00049289078,"MEAN_MOTION_DOT":1.93e-6,"MEAN_MOTION_DDOT":0},{"OBJECT_NAME":"ONEWEB-0171","OBJECT_ID":"2021-025AE","EPOCH":"2025-09-08T02:02:24.798336","MEAN_MOTION":13.13470854,"ECCENTRICITY":0.00016374,"INCLINATION":87.902,"RA_OF_ASC_NODE":16.2898,"ARG_OF_PERICENTER":99.6456,"MEAN_ANOMALY":260.4859,"EPHEMERIS_TYPE":0,"CLASSIFICATION_TYPE":"U","NORAD_CAT_ID":48070,"ELEMENT_SET_NO":999,"REV_AT_EPOCH":21658,"BSTAR":-0.00031738754,"MEAN_MOTION_DOT":-1.03e-6,"MEAN_MOTION_DDOT":0},{"OBJECT_NAME":"ONEWEB-0172","OBJECT_ID":"2021-025AF","EPOCH":"2025-09-08T07:02:13.930656","MEAN_MOTION":13.13468928,"ECCENTRICITY":0.00016095,"INCLINATION":87.9029,"RA_OF_ASC_NODE":16.216,"ARG_OF_PERICENTER":102.5861,"MEAN_ANOMALY":257.5448,"EPHEMERIS_TYPE":0,"CLASSIFICATION_TYPE":"U","NORAD_CAT_ID":48071,"ELEMENT_SET_NO":999,"REV_AT_EPOCH":21750,"BSTAR":-0.00063431653,"MEAN_MOTION_DOT":-2.19e-6,"MEAN_MOTION_DDOT":0},{"OBJECT_NAME":"ONEWEB-0174","OBJECT_ID":"2021-025AG","EPOCH":"2025-09-08T06:35:25.598976","MEAN_MOTION":13.13471827,"ECCENTRICITY":0.00018714,"INCLINATION":87.9025,"RA_OF_ASC_NODE":16.2322,"ARG_OF_PERICENTER":101.6169,"MEAN_ANOMALY":258.517,"EPHEMERIS_TYPE":0,"CLASSIFICATION_TYPE":"U","NORAD_CAT_ID":48072,"ELEMENT_SET_NO":999,"REV_AT_EPOCH":21682,"BSTAR":0.00058230996,"MEAN_MOTION_DOT":2.25e-6,"MEAN_MOTION_DDOT":0},{"OBJECT_NAME":"ONEWEB-0175","OBJECT_ID":"2021-025AH","EPOCH":"2025-09-08T01:50:13.174368","MEAN_MOTION":13.13470917,"ECCENTRICITY":0.0001403,"INCLINATION":87.9027,"RA_OF_ASC_NODE":16.2362,"ARG_OF_PERICENTER":96.786,"MEAN_ANOMALY":263.3429,"EPHEMERIS_TYPE":0,"CLASSIFICATION_TYPE":"U","NORAD_CAT_ID":48073,"ELEMENT_SET_NO":999,"REV_AT_EPOCH":21645,"BSTAR":-0.00072333666,"MEAN_MOTION_DOT":-2.51e-6,"MEAN_MOTION_DDOT":0},{"OBJECT_NAME":"ONEWEB-0177","OBJECT_ID":"2021-025AJ","EPOCH":"2025-09-08T02:07:16.543488","MEAN_MOTION":13.13470907,"ECCENTRICITY":0.00018336,"INCLINATION":87.9029,"RA_OF_ASC_NODE":16.2504,"ARG_OF_PERICENTER":105.2022,"MEAN_ANOMALY":254.931,"EPHEMERIS_TYPE":0,"CLASSIFICATION_TYPE":"U","NORAD_CAT_ID":48074,"ELEMENT_SET_NO":999,"REV_AT_EPOCH":21664,"BSTAR":-5.370399e-6,"MEAN_MOTION_DOT":1.1e-7,"MEAN_MOTION_DDOT":0},{"OBJECT_NAME":"ONEWEB-0178","OBJECT_ID":"2021-025AK","EPOCH":"2025-09-08T02:34:17.151744","MEAN_MOTION":13.13470271,"ECCENTRICITY":0.00014996,"INCLINATION":87.9033,"RA_OF_ASC_NODE":16.293,"ARG_OF_PERICENTER":105.5356,"MEAN_ANOMALY":254.5939,"EPHEMERIS_TYPE":0,"CLASSIFICATION_TYPE":"U","NORAD_CAT_ID":48075,"ELEMENT_SET_NO":999,"REV_AT_EPOCH":21669,"BSTAR":0.0012552058,"MEAN_MOTION_DOT":4.71e-6,"MEAN_MOTION_DDOT":0},{"OBJECT_NAME":"ONEWEB-0108","OBJECT_ID":"2021-025AL","EPOCH":"2025-09-08T07:04:40.743264","MEAN_MOTION":13.13469826,"ECCENTRICITY":0.00019261,"INCLINATION":87.9026,"RA_OF_ASC_NODE":16.2017,"ARG_OF_PERICENTER":94.0183,"MEAN_ANOMALY":266.1167,"EPHEMERIS_TYPE":0,"CLASSIFICATION_TYPE":"U","NORAD_CAT_ID":48076,"ELEMENT_SET_NO":999,"REV_AT_EPOCH":21664,"BSTAR":-0.00060511012,"MEAN_MOTION_DOT":-2.08e-6,"MEAN_MOTION_DDOT":0},{"OBJECT_NAME":"ONEWEB-0169","OBJECT_ID":"2021-025AM","EPOCH":"2025-09-08T06:01:17.804064","MEAN_MOTION":13.1347133,"ECCENTRICITY":0.00019484,"INCLINATION":87.9028,"RA_OF_ASC_NODE":16.2337,"ARG_OF_PERICENTER":94.8555,"MEAN_ANOMALY":265.2797,"EPHEMERIS_TYPE":0,"CLASSIFICATION_TYPE":"U","NORAD_CAT_ID":48077,"ELEMENT_SET_NO":999,"REV_AT_EPOCH":21529,"BSTAR":0.00084238665,"MEAN_MOTION_DOT":3.2e-6,"MEAN_MOTION_DDOT":0},{"OBJECT_NAME":"ONEWEB-0176","OBJECT_ID":"2021-031A","EPOCH":"2025-09-08T05:43:45.529824","MEAN_MOTION":13.14503866,"ECCENTRICITY":0.0001703,"INCLINATION":87.9084,"RA_OF_ASC_NODE":345.8324,"ARG_OF_PERICENTER":101.9002,"MEAN_ANOMALY":258.2319,"EPHEMERIS_TYPE":0,"CLASSIFICATION_TYPE":"U","NORAD_CAT_ID":48210,"ELEMENT_SET_NO":999,"REV_AT_EPOCH":21127,"BSTAR":0.00048137999,"MEAN_MOTION_DOT":1.91e-6,"MEAN_MOTION_DDOT":0},{"OBJECT_NAME":"ONEWEB-0184","OBJECT_ID":"2021-031B","EPOCH":"2025-09-08T05:04:55.600896","MEAN_MOTION":13.14502794,"ECCENTRICITY":9.703e-5,"INCLINATION":87.9094,"RA_OF_ASC_NODE":345.8089,"ARG_OF_PERICENTER":110.6821,"MEAN_ANOMALY":249.4413,"EPHEMERIS_TYPE":0,"CLASSIFICATION_TYPE":"U","NORAD_CAT_ID":48211,"ELEMENT_SET_NO":999,"REV_AT_EPOCH":21124,"BSTAR":-0.00033386874,"MEAN_MOTION_DOT":-1.11e-6,"MEAN_MOTION_DDOT":0},{"OBJECT_NAME":"ONEWEB-0179","OBJECT_ID":"2021-031C","EPOCH":"2025-09-08T06:12:17.066304","MEAN_MOTION":13.14502167,"ECCENTRICITY":0.00019003,"INCLINATION":87.9087,"RA_OF_ASC_NODE":345.8164,"ARG_OF_PERICENTER":102.494,"MEAN_ANOMALY":257.6403,"EPHEMERIS_TYPE":0,"CLASSIFICATION_TYPE":"U","NORAD_CAT_ID":48212,"ELEMENT_SET_NO":999,"REV_AT_EPOCH":21129,"BSTAR":0.00089923417,"MEAN_MOTION_DOT":3.46e-6,"MEAN_MOTION_DDOT":0},{"OBJECT_NAME":"ONEWEB-0180","OBJECT_ID":"2021-031D","EPOCH":"2025-09-08T05:09:29.959776","MEAN_MOTION":13.14503814,"ECCENTRICITY":0.00017928,"INCLINATION":87.9097,"RA_OF_ASC_NODE":345.814,"ARG_OF_PERICENTER":109.7789,"MEAN_ANOMALY":250.3535,"EPHEMERIS_TYPE":0,"CLASSIFICATION_TYPE":"U","NORAD_CAT_ID":48213,"ELEMENT_SET_NO":999,"REV_AT_EPOCH":21117,"BSTAR":-0.00027339384,"MEAN_MOTION_DOT":-8.9e-7,"MEAN_MOTION_DDOT":0},{"OBJECT_NAME":"ONEWEB-0218","OBJECT_ID":"2021-031E","EPOCH":"2025-09-08T05:41:28.161600","MEAN_MOTION":13.14503388,"ECCENTRICITY":0.00011059,"INCLINATION":87.9096,"RA_OF_ASC_NODE":345.8105,"ARG_OF_PERICENTER":124.8548,"MEAN_ANOMALY":235.2686,"EPHEMERIS_TYPE":0,"CLASSIFICATION_TYPE":"U","NORAD_CAT_ID":48214,"ELEMENT_SET_NO":999,"REV_AT_EPOCH":21133,"BSTAR":0.00035440542,"MEAN_MOTION_DOT":1.44e-6,"MEAN_MOTION_DDOT":0}]
