ONEWEB-0170             
1 48067U 21025AB  25251.07145847 -.00000260  00000+0 -74714-3 0  9991
2 48067  87.9029  16.2662 0001393  86.2475 273.8813 13.13470043216516
ONEWEB-0168             
1 48068U 21025AC  25251.28475518 -.00000022  00000+0 -94469-4 0  9992
2 48068  87.9029  16.2055 0001738 104.2112 255.9210 13.13469832216555
ONEWEB-0173             
1 48069U 21025AD  25251.27629540  .00000193  00000+0  49289-3 0  9994
2 48069  87.9028  16.2150 0001589 113.3897 246.7399 13.13470168216792
ONEWEB-0171             
1 48070U 21025AE  25251.08500924 -.00000103  00000+0 -31739-3 0  9993
2 48070  87.9020  16.2898 0001637  99.6456 260.4859 13.13470854216589
ONEWEB-0172             
1 48071U 21025AF  25251.29321679 -.00000219  00000+0 -63432-3 0  9998
2 48071  87.9029  16.2160 0001609 102.5861 257.5448 13.13468928217507
ONEWEB-0174             
1 48072U 21025AG  25251.27460184  .00000225  00000+0  58231-3 0  9998
2 48072  87.9025  16.2322 0001871 101.6169 258.5170 13.13471827216825
ONEWEB-0175             
1 48073U 21025AH  25251.07654137 -.00000251  00000+0 -72334-3 0  9991
2 48073  87.9027  16.2362 0001403  96.7860 263.3429 13.13470917216454
ONEWEB-0177             
1 48074U 21025AJ  25251.08838592  .00000011  00000+0 -53704-5 0  9997
2 48074  87.9029  16.2504 0001833 105.2022 254.9310 13.13470907216643
ONEWEB-0178             
1 48075U 21025AK  25251.10714296  .00000471  00000+0  12552-2 0  9997
2 48075  87.9033  16.2930 0001499 105.5356 254.5939 13.13470271216695
ONEWEB-0108             
1 48076U 21025AL  25251.29491601 -.00000208  00000+0 -60511-3 0  9999
2 48076  87.9026  16.2017 0001926  94.0183 266.1167 13.13469826216640
ONEWEB-0169             
1 48077U 21025AM  25251.25090051  .00000320  00000+0  84239-3 0  9996
2 48077  87.9028  16.2337 0001948  94.8555 265.2797 13.13471330215295
ONEWEB-0176             
1 48210U 21031A   25251.23872141  .00000191  00000+0  48138-3 0  9992
2 48210  87.9084 345.8324 0001703 101.9002 258.2319 13.14503866211276
ONEWEB-0184             
1 48211U 21031B   25251.21175464 -.00000111  00000+0 -33387-3 0  9999
2 48211  87.9094 345.8089 0000970 110.6821 249.4413 13.14502794211240
ONEWEB-0179             
1 48212U 21031C   25251.25853086  .00000346  00000+0  89923-3 0  9992
2 48212  87.9087 345.8164 0001900 102.4940 257.6403 13.14502167211291
ONEWEB-0180             
1 48213U 21031D   25251.21493009 -.00000089  00000+0 -27339-3 0  9993
2 48213  87.9097 345.8140 0001792 109.7789 250.3535 13.14503814211170
ONEWEB-0218             
1 48214U 21031E   25251.23713150  .00000144  00000+0  35441-3 0  9991
2 48214  87.9096 345.8105 0001105 124.8548 235.2686 13.14503388211333
